[{"OBJECT_NAME":"STARLINK-4183","OBJECT_ID":"2022-076AE","EPOCH":"2025-10-04T17:07:12.794592","MEAN_MOTION":15.08839204,"ECCENTRICITY":0.0001305,"INCLINATION":53.2179,"RA_OF_ASC_NODE":64.3249,"ARG_OF_PERICENTER":94.0463,"MEAN_ANOMALY":266.0679,"EPHEMERIS_TYPE":0,"CLASSIFICATION_TYPE":"U","NORAD_CAT_ID":53014,"ELEMENT_SET_NO":999,"REV_AT_EPOCH":17943,"BSTAR":4.2869e-5,"MEAN_MOTION_DOT":3.94e-6,"MEAN_MOTION_DDOT":0},{"OBJECT_NAME":"STARLINK-4262","OBJECT_ID":"2022-076AF","EPOCH":"2025-10-04T19:46:11.496288","MEAN_MOTION":15.08836967,"ECCENTRICITY":0.0001447,"INCLINATION":53.2183,"RA_OF_ASC_NODE":63.8289,"ARG_OF_PERICENTER":89.017,"MEAN_ANOMALY":271.0988,"EPHEMERIS_TYPE":0,"CLASSIFICATION_TYPE":"U","NORAD_CAT_ID":53015,"ELEMENT_SET_NO":999,"REV_AT_EPOCH":17945,"BSTAR":-2.6094e-5,"MEAN_MOTION_DOT":-7.03e-6,"MEAN_MOTION_DDOT":0},{"OBJECT_NAME":"STARLINK-4283","OBJECT_ID":"2022-076AG","EPOCH":"2025-10-04T20:02:04.452000","MEAN_MOTION":15.08847335,"ECCENTRICITY":9.57e-5,"INCLINATION":53.2151,"RA_OF_ASC_NODE":63.781,"ARG_OF_PERICENTER":114.7044,"MEAN_ANOMALY":245.4048,"EPHEMERIS_TYPE":0,"CLASSIFICATION_TYPE":"U","NORAD_CAT_ID":53016,"ELEMENT_SET_NO":999,"REV_AT_EPOCH":17945,"BSTAR":-5.048e-5,"MEAN_MOTION_DOT":-1.091e-5,"MEAN_MOTION_DDOT":0},{"OBJECT_NAME":"STARLINK-4281","OBJECT_ID":"2022-076AH","EPOCH":"2025-10-04T19:40:54.314112","MEAN_MOTION":15.08851271,"ECCENTRICITY":0.0001247,"INCLINATION":53.2154,"RA_OF_ASC_NODE":63.8439,"ARG_OF_PERICENTER":91.1623,"MEAN_ANOMALY":268.9512,"EPHEMERIS_TYPE":0,"CLASSIFICATION_TYPE":"U","NORAD_CAT_ID":53017,"ELEMENT_SET_NO":999,"REV_AT_EPOCH":17946,"BSTAR":0.00035822,"MEAN_MOTION_DOT":5.42e-5,"MEAN_MOTION_DDOT":0},{"OBJECT_NAME":"STARLINK-4279","OBJECT_ID":"2022-076AJ","EPOCH":"2025-10-04T18:58:32.415744","MEAN_MOTION":15.08843668,"ECCENTRICITY":0.0001356,"INCLINATION":53.2179,"RA_OF_ASC_NODE":64.2318,"ARG_OF_PERICENTER":122.8684,"MEAN_ANOMALY":237.2439,"EPHEMERIS_TYPE":0,"CLASSIFICATION_TYPE":"U","NORAD_CAT_ID":53018,"ELEMENT_SET_NO":999,"REV_AT_EPOCH":17944,"BSTAR":9.4168e-6,"MEAN_MOTION_DOT":-1.38e-6,"MEAN_MOTION_DDOT":0},{"OBJECT_NAME":"STARLINK-4282","OBJECT_ID":"2022-076AK","EPOCH":"2025-10-04T19:30:18.209664","MEAN_MOTION":15.08836731,"ECCENTRICITY":0.000117,"INCLINATION":53.2171,"RA_OF_ASC_NODE":63.8786,"ARG_OF_PERICENTER":91.3506,"MEAN_ANOMALY":268.762,"EPHEMERIS_TYPE":0,"CLASSIFICATION_TYPE":"U","NORAD_CAT_ID":53019,"ELEMENT_SET_NO":999,"REV_AT_EPOCH":17945,"BSTAR":0.00018561,"MEAN_MOTION_DOT":2.667e-5,"MEAN_MOTION_DDOT":0},{"OBJECT_NAME":"STARLINK-4287","OBJECT_ID":"2022-076AL","EPOCH":"2025-10-04T19:51:28.579104","MEAN_MOTION":15.08841271,"ECCENTRICITY":0.000157,"INCLINATION":53.2163,"RA_OF_ASC_NODE":63.8112,"ARG_OF_PERICENTER":100.3552,"MEAN_ANOMALY":259.7617,"EPHEMERIS_TYPE":0,"CLASSIFICATION_TYPE":"U","NORAD_CAT_ID":53020,"ELEMENT_SET_NO":999,"REV_AT_EPOCH":17945,"BSTAR":8.4883e-5,"MEAN_MOTION_DOT":1.063e-5,"MEAN_MOTION_DDOT":0},{"OBJECT_NAME":"STARLINK-4216","OBJECT_ID":"2022-076AN","EPOCH":"2025-10-04T19:35:35.412576","MEAN_MOTION":15.08839176,"ECCENTRICITY":0.0001325,"INCLINATION":53.2168,"RA_OF_ASC_NODE":63.8612,"ARG_OF_PERICENTER":92.4989,"MEAN_ANOMALY":267.6154,"EPHEMERIS_TYPE":0,"CLASSIFICATION_TYPE":"U","NORAD_CAT_ID":53022,"ELEMENT_SET_NO":999,"REV_AT_EPOCH":17945,"BSTAR":3.61e-5,"MEAN_MOTION_DOT":2.87e-6,"MEAN_MOTION_DDOT":0},{"OBJECT_NAME":"STARLINK-4284","OBJECT_ID":"2022-076AP","EPOCH":"2025-10-04T19:09:05.325984","MEAN_MOTION":15.08839961,"ECCENTRICITY":0.0001363,"INCLINATION":53.2175,"RA_OF_ASC_NODE":63.9321,"ARG_OF_PERICENTER":98.3879,"MEAN_ANOMALY":261.7268,"EPHEMERIS_TYPE":0,"CLASSIFICATION_TYPE":"U","NORAD_CAT_ID":53023,"ELEMENT_SET_NO":999,"REV_AT_EPOCH":17945,"BSTAR":6.7278e-5,"MEAN_MOTION_DOT":7.83e-6,"MEAN_MOTION_DDOT":0},{"OBJECT_NAME":"STARLINK-4289","OBJECT_ID":"2022-076AQ","EPOCH":"2025-10-04T16:03:37.431072","MEAN_MOTION":15.08826019,"ECCENTRICITY":0.0001565,"INCLINATION":53.2184,"RA_OF_ASC_NODE":64.5245,"ARG_OF_PERICENTER":87.976,"MEAN_ANOMALY":272.1411,"EPHEMERIS_TYPE":0,"CLASSIFICATION_TYPE":"U","NORAD_CAT_ID":53024,"ELEMENT_SET_NO":999,"REV_AT_EPOCH":17943,"BSTAR":-9.4479e-5,"MEAN_MOTION_DOT":-1.791e-5,"MEAN_MOTION_DDOT":0},{"OBJECT_NAME":"STARLINK-4218","OBJECT_ID":"2022-076AR","EPOCH":"2025-10-02T16:11:27.119616","MEAN_MOTION":15.0883483,"ECCENTRICITY":0.00014129,"INCLINATION":53.2176,"RA_OF_ASC_NODE":73.477,"ARG_OF_PERICENTER":98.5364,"MEAN_ANOMALY":261.5788,"EPHEMERIS_TYPE":0,"CLASSIFICATION_TYPE":"U","NORAD_CAT_ID":53025,"ELEMENT_SET_NO":999,"REV_AT_EPOCH":17913,"BSTAR":1.3258316e-5,"MEAN_MOTION_DOT":-7.7e-7,"MEAN_MOTION_DDOT":0},{"OBJECT_NAME":"STARLINK-4119","OBJECT_ID":"2022-076AS","EPOCH":"2025-10-04T19:10:26.861664","MEAN_MOTION":15.08840417,"ECCENTRICITY":0.0001534,"INCLINATION":53.2189,"RA_OF_ASC_NODE":63.8344,"ARG_OF_PERICENTER":94.2656,"MEAN_ANOMALY":265.8511,"EPHEMERIS_TYPE":0,"CLASSIFICATION_TYPE":"U","NORAD_CAT_ID":53026,"ELEMENT_SET_NO":999,"REV_AT_EPOCH":17945,"BSTAR":4.9592e-5,"MEAN_MOTION_DOT":5.01e-6,"MEAN_MOTION_DDOT":0},{"OBJECT_NAME":"STARLINK-4158","OBJECT_ID":"2022-076AT","EPOCH":"2025-10-04T18:47:54.273120","MEAN_MOTION":15.08835428,"ECCENTRICITY":0.0001177,"INCLINATION":53.2163,"RA_OF_ASC_NODE":64.0097,"ARG_OF_PERICENTER":79.8599,"MEAN_ANOMALY":280.2526,"EPHEMERIS_TYPE":0,"CLASSIFICATION_TYPE":"U","NORAD_CAT_ID":53027,"ELEMENT_SET_NO":999,"REV_AT_EPOCH":17945,"BSTAR":3.2569e-5,"MEAN_MOTION_DOT":2.3e-6,"MEAN_MOTION_DDOT":0},{"OBJECT_NAME":"STARLINK-4143","OBJECT_ID":"2022-076AV","EPOCH":"2025-10-03T09:04:55.494912","MEAN_MOTION":15.08831324,"ECCENTRICITY":0.00013998,"INCLINATION":53.2171,"RA_OF_ASC_NODE":60.3159,"ARG_OF_PERICENTER":101.3893,"MEAN_ANOMALY":258.7257,"EPHEMERIS_TYPE":0,"CLASSIFICATION_TYPE":"U","NORAD_CAT_ID":53029,"ELEMENT_SET_NO":999,"REV_AT_EPOCH":17937,"BSTAR":3.1846954e-5,"MEAN_MOTION_DOT":2.19e-6,"MEAN_MOTION_DDOT":0},{"OBJECT_NAME":"STARLINK-4160","OBJECT_ID":"2022-076AW","EPOCH":"2025-10-04T16:14:14.193024","MEAN_MOTION":15.08873349,"ECCENTRICITY":9.18e-5,"INCLINATION":53.2168,"RA_OF_ASC_NODE":64.6811,"ARG_OF_PERICENTER":80.4103,"MEAN_ANOMALY":279.6993,"EPHEMERIS_TYPE":0,"CLASSIFICATION_TYPE":"U","NORAD_CAT_ID":53030,"ELEMENT_SET_NO":999,"REV_AT_EPOCH":17943,"BSTAR":-0.0005187,"MEAN_MOTION_DOT":-8.541e-5,"MEAN_MOTION_DDOT":0},{"OBJECT_NAME":"STARLINK-4137","OBJECT_ID":"2022-076AX","EPOCH":"2025-10-05T02:09:02.766240","MEAN_MOTION":15.08864611,"ECCENTRICITY":9.71e-5,"INCLINATION":53.2171,"RA_OF_ASC_NODE":52.6347,"ARG_OF_PERICENTER":83.2041,"MEAN_ANOMALY":276.9062,"EPHEMERIS_TYPE":0,"CLASSIFICATION_TYPE":"U","NORAD_CAT_ID":53031,"ELEMENT_SET_NO":999,"REV_AT_EPOCH":17963,"BSTAR":-0.00034883,"MEAN_MOTION_DOT":-5.839e-5,"MEAN_MOTION_DDOT":0},{"OBJECT_NAME":"STARLINK-4115","OBJECT_ID":"2022-076AY","EPOCH":"2025-10-04T20:28:34.612896","MEAN_MOTION":15.08841873,"ECCENTRICITY":0.0001225,"INCLINATION":53.2172,"RA_OF_ASC_NODE":63.6955,"ARG_OF_PERICENTER":96.6767,"MEAN_ANOMALY":263.4365,"EPHEMERIS_TYPE":0,"CLASSIFICATION_TYPE":"U","NORAD_CAT_ID":53032,"ELEMENT_SET_NO":999,"REV_AT_EPOCH":17946,"BSTAR":1.4149e-5,"MEAN_MOTION_DOT":-6.3e-7,"MEAN_MOTION_DDOT":0},{"OBJECT_NAME":"STARLINK-4167","OBJECT_ID":"2022-076AZ","EPOCH":"2025-10-03T08:54:19.622880","MEAN_MOTION":15.0883836,"ECCENTRICITY":0.00014054,"INCLINATION":53.2187,"RA_OF_ASC_NODE":60.3517,"ARG_OF_PERICENTER":91.5148,"MEAN_ANOMALY":268.6005,"EPHEMERIS_TYPE":0,"CLASSIFICATION_TYPE":"U","NORAD_CAT_ID":53033,"ELEMENT_SET_NO":999,"REV_AT_EPOCH":17937,"BSTAR":7.9120951e-5,"MEAN_MOTION_DOT":9.71e-6,"MEAN_MOTION_DDOT":0},{"OBJECT_NAME":"STARLINK-4151","OBJECT_ID":"2022-076BA","EPOCH":"2025-10-04T18:29:22.235136","MEAN_MOTION":15.08884377,"ECCENTRICITY":0.0001107,"INCLINATION":53.2162,"RA_OF_ASC_NODE":54.1142,"ARG_OF_PERICENTER":101.5398,"MEAN_ANOMALY":258.5718,"EPHEMERIS_TYPE":0,"CLASSIFICATION_TYPE":"U","NORAD_CAT_ID":53034,"ELEMENT_SET_NO":999,"REV_AT_EPOCH":17958,"BSTAR":0.00053851,"MEAN_MOTION_DOT":8.303e-5,"MEAN_MOTION_DDOT":0},{"OBJECT_NAME":"STARLINK-4157","OBJECT_ID":"2022-076BB","EPOCH":"2025-10-05T02:03:45.749088","MEAN_MOTION":15.08838357,"ECCENTRICITY":0.0001643,"INCLINATION":53.2197,"RA_OF_ASC_NODE":52.6543,"ARG_OF_PERICENTER":88.7722,"MEAN_ANOMALY":271.3458,"EPHEMERIS_TYPE":0,"CLASSIFICATION_TYPE":"U","NORAD_CAT_ID":53035,"ELEMENT_SET_NO":999,"REV_AT_EPOCH":17963,"BSTAR":-9.6246e-6,"MEAN_MOTION_DOT":-4.41e-6,"MEAN_MOTION_DDOT":0},{"OBJECT_NAME":"STARLINK-4155","OBJECT_ID":"2022-076BC","EPOCH":"2025-10-04T19:36:54.935136","MEAN_MOTION":15.08833813,"ECCENTRICITY":0.0001186,"INCLINATION":53.217,"RA_OF_ASC_NODE":53.8595,"ARG_OF_PERICENTER":102.2269,"MEAN_ANOMALY":257.8856,"EPHEMERIS_TYPE":0,"CLASSIFICATION_TYPE":"U","NORAD_CAT_ID":53036,"ELEMENT_SET_NO":999,"REV_AT_EPOCH":17959,"BSTAR":6.8822e-5,"MEAN_MOTION_DOT":8.07e-6,"MEAN_MOTION_DDOT":0},{"OBJECT_NAME":"STARLINK-4153","OBJECT_ID":"2022-076BD","EPOCH":"2025-10-05T01:53:09.536640","MEAN_MOTION":15.08843643,"ECCENTRICITY":0.0001137,"INCLINATION":53.216,"RA_OF_ASC_NODE":52.6856,"ARG_OF_PERICENTER":75.4171,"MEAN_ANOMALY":284.6948,"EPHEMERIS_TYPE":0,"CLASSIFICATION_TYPE":"U","NORAD_CAT_ID":53037,"ELEMENT_SET_NO":999,"REV_AT_EPOCH":17963,"BSTAR":0.00048021,"MEAN_MOTION_DOT":7.364e-5,"MEAN_MOTION_DDOT":0},{"OBJECT_NAME":"STARLINK-4156","OBJECT_ID":"2022-076BE","EPOCH":"2025-10-05T01:47:51.137088","MEAN_MOTION":15.08854122,"ECCENTRICITY":0.0001421,"INCLINATION":53.2191,"RA_OF_ASC_NODE":52.7035,"ARG_OF_PERICENTER":90.8295,"MEAN_ANOMALY":269.286,"EPHEMERIS_TYPE":0,"CLASSIFICATION_TYPE":"U","NORAD_CAT_ID":53038,"ELEMENT_SET_NO":999,"REV_AT_EPOCH":17963,"BSTAR":-0.00015621,"MEAN_MOTION_DOT":-2.774e-5,"MEAN_MOTION_DDOT":0}]
